CAPELLA-11 (ACADIA-1)   
1 57693U 23126A   26194.10121633  .00002203  00000+0  28325-3 0  9992
2 57693  53.0082  72.3940 0002119 123.6112 236.5070 14.84908624155970
CAPELLA-14 (ACADIA-4)   
1 59444U 24066C   26194.24823292  .00006954  00000+0  45541-3 0  9993
2 59444  45.6044 118.0658 0000749  18.4375 341.6537 15.08425491116420
CAPELLA-13 (ACADIA-3)   
1 60419U 24142A   26195.71115507  .00002272  00000+0  27292-3 0  9990
2 60419  53.0055 297.4262 0001327  88.9137 271.1995 14.87659816104500
CAPELLA-15 (ACADIA-5)   
1 60544U 24149CE  26195.74503734  .00002282  00000+0  22825-3 0  9990
2 60544  97.6766 267.9581 0003350 340.0098  20.0990 14.92404933103963
CAPELLA-17 (ACADIA-7)   
1 64583U 25135BH  26195.91123439  .00003139  00000+0  31816-3 0  9994
2 64583  97.7709 309.1243 0004127 250.9264 109.1508 14.91617982 57982
CAPELLA-16 (ACADIA-6)   
1 65318U 25188D   26195.75234628  .00003683  00000+0  35030-3 0  9990
2 65318  97.7379 270.4912 0005700 136.0748 224.0926 14.94046316 48031
CAPELLA-19 (ACADIA-9)   
1 67384U 26004X   26194.91976401  .00002618  00000+0  30086-3 0  9995
2 67384  97.8003 192.8106 0001604  96.0865 264.0534 14.86655141 27249
CAPELLA-18 (ACADIA-8)   
1 67385U 26004Y   26195.93941734  .00002787  00000+0  31994-3 0  9996
2 67385  97.8011 193.9650 0001498  93.9580 266.1808 14.86651655 27407
CAPELLA-20 (ACADIA-10)  
1 68485U 26067BX  26195.86313344  .00002640  00000+0  26809-3 0  9996
2 68485  97.7587 153.7182 0001004 147.0234 213.1048 14.91681608 15851
